     3.04           N: GNSS NAV DATA    C: BEIDOU           RINEX VERSION / TYPE
sbf2rin-13.8.0                          20210609 002844 UTC PGM / RUN BY / DATE 
ABPO                                    MARKER NAME         COMMENT
33302M001                               MARKER NUMBER       COMMENT
  4097216.5539  4429119.1897 -2065771.1988                  COMMENT
                                                            END OF HEADER       
C02 2021 06 08 19 00 00 6.097810110077E-04-3.235189893758E-11 0.000000000000E+00
     1.000000000000E+00-6.849062500000E+02-2.842618406467E-09-1.986022784518E+00
    -2.245977520943E-05 7.643183926120E-04-4.391185939312E-07 6.493493213654E+03
     2.412000000000E+05 5.960464477539E-08 2.230143082845E+00 1.583248376846E-08
     9.801890528084E-02 1.600000000000E+01-3.869874164935E-02 3.991594837375E-09
     5.132356640398E-10 0.000000000000E+00 8.050000000000E+02 0.000000000000E+00
     2.000000000000E+00 0.000000000000E+00 5.000000000000E-10-1.440000000000E-08
     2.412276000000E+05 0.000000000000E+00
C03 2021 06 08 19 00 00-2.119072014466E-04 4.452260782273E-11 0.000000000000E+00
     1.000000000000E+00-6.703437500000E+02-2.611537352442E-09-2.647356787505E+00
    -2.196803689003E-05 9.290493326262E-04-5.635432898998E-06 6.493375709534E+03
     2.412000000000E+05 6.984919309616E-09 2.137501312904E+00 1.988373696804E-07
     1.036546333344E-01 1.769531250000E+02 1.179884638405E+00 3.832659645658E-09
     5.210931341921E-10 0.000000000000E+00 8.050000000000E+02 0.000000000000E+00
     2.000000000000E+00 0.000000000000E+00 2.300000000000E-09-8.100000000000E-09
     2.412276000000E+05 0.000000000000E+00
C21 2021 06 08 19 00 00-9.362603304908E-04 1.401545546287E-12 0.000000000000E+00
     1.000000000000E+00 1.960937500000E+01 3.993737783781E-09-2.022032280435E+00
     8.582137525082E-07 8.473566267639E-04 6.485730409622E-06 5.282618297577E+03
     2.412000000000E+05-8.847564458847E-09-2.273700845452E+00-2.468004822731E-08
     9.652639149108E-01 2.303281250000E+02-8.651253408115E-01-6.753495595914E-09
     3.389426897521E-10 0.000000000000E+00 8.050000000000E+02 0.000000000000E+00
     2.000000000000E+00 0.000000000000E+00 1.410000000000E-08 1.410000000000E-08
     2.433780000000E+05 1.000000000000E+00
C37 2021 06 08 19 00 00-8.783362573013E-04 5.754507981237E-12 0.000000000000E+00
     1.000000000000E+00 9.504687500000E+01 3.596578383355E-09-6.691550175867E-01
     4.674308001995E-06 6.365143926814E-04 1.043267548084E-05 5.282625726700E+03
     2.412000000000E+05-7.217749953270E-08-1.722750645879E-01-4.190951585770E-09
     9.513806306963E-01 1.464687500000E+02-1.143751714627E+00-6.535986535788E-09
    -1.550064566411E-10 0.000000000000E+00 8.050000000000E+02 0.000000000000E+00
     2.000000000000E+00 0.000000000000E+00-1.330000000000E-08-1.330000000000E-08
     2.435280000000E+05 1.000000000000E+00
C23 2021 06 08 20 00 00-9.296003263444E-04-1.169375707377E-11 0.000000000000E+00
     1.000000000000E+00 8.275000000000E+01 3.583720704924E-09 1.326775906273E+00
     4.181172698736E-06 2.436735667288E-04 1.048669219017E-05 5.282632608414E+03
     2.448000000000E+05 1.350417733192E-08-1.696575413404E-01 1.629814505577E-08
     9.499619629631E-01 1.415156250000E+02-1.880268186409E+00-6.630990493084E-09
    -1.792931825664E-10 0.000000000000E+00 8.050000000000E+02 0.000000000000E+00
     2.000000000000E+00 0.000000000000E+00 2.500000000000E-08 2.500000000000E-08
     2.448180000000E+05 1.000000000000E+00
C25 2021 06 08 20 00 00-9.040664881468E-04 5.989875262458E-12 0.000000000000E+00
     1.000000000000E+00 7.528125000000E+01 3.545504827365E-09-3.063857651684E-02
     3.866851329803E-06 3.581397468224E-04 1.123081892729E-05 5.282630254745E+03
     2.448000000000E+05 4.470348358154E-08-1.951403659109E-01 2.002343535423E-08
     9.512182526412E-01 1.287187500000E+02 2.456969860828E-01-6.570630836005E-09
    -1.428630936784E-10 0.000000000000E+00 8.050000000000E+02 0.000000000000E+00
     2.000000000000E+00 0.000000000000E+00 9.000000000000E-10 9.000000000000E-10
     2.448180000000E+05 1.000000000000E+00
C43 2021 06 08 20 00 00-7.675223750994E-04-1.711519814762E-11 0.000000000000E+00
     1.000000000000E+00-1.031562500000E+02 4.058026175936E-09-2.480804987600E+00
    -5.289912223816E-06 5.604027537629E-04 1.714564859867E-06 5.282615928650E+03
     2.448000000000E+05 4.284083843231E-08 1.900129309384E+00-4.051253199577E-08
     9.601908075955E-01 3.263750000000E+02 6.193874135034E-01-7.139940264314E-09
    -1.425059359442E-10 0.000000000000E+00 8.050000000000E+02 0.000000000000E+00
     2.000000000000E+00 0.000000000000E+00-3.500000000000E-09-3.500000000000E-09
     2.448180000000E+05 1.000000000000E+00
C28 2021 06 08 20 00 00-6.468011997640E-05 4.685141163918E-12 0.000000000000E+00
     1.000000000000E+00-1.041875000000E+02 3.914448766789E-09 9.873258050314E-01
    -5.204230546951E-06 1.098690554500E-04 2.381391823292E-06 5.282622514725E+03
     2.448000000000E+05-4.423782229424E-08 1.934025909794E+00-3.864988684654E-08
     9.662388386289E-01 3.187656250000E+02 2.626486904979E+00-7.027435578042E-09
    -1.892935991239E-10 0.000000000000E+00 8.050000000000E+02 0.000000000000E+00
     2.000000000000E+00 0.000000000000E+00-4.400000000000E-09-4.400000000000E-09
     2.448180000000E+05 1.000000000000E+00
C11 2021 06 08 20 00 00 3.883566241711E-04 2.209965543898E-11 5.421010862428E-20
     5.000000000000E+00-1.059062500000E+02 3.536575884010E-09 5.263097466392E-01
    -5.370005965233E-06 1.806683023460E-03 2.053566277027E-06 5.282602581024E+03
     2.448000000000E+05 3.306195139885E-08 1.942495522290E+00-1.350417733192E-08
     9.903098360711E-01 3.348750000000E+02-2.016289943689E+00-6.872429121401E-09
    -1.867934949846E-10 0.000000000000E+00 8.050000000000E+02 0.000000000000E+00
     2.000000000000E+00 0.000000000000E+00 3.400000000000E-09 1.200000000000E-09
     2.448180000000E+05 3.000000000000E+00
C14 2021 06 08 20 00 00 9.221308864653E-04-3.955324956451E-11 0.000000000000E+00
     1.000000000000E+00 2.229687500000E+01 3.959807799032E-09-2.946712226278E+00
     9.164214134216E-07 1.479940372519E-03 6.638467311859E-06 5.282613245010E+03
     2.448000000000E+05-4.004687070847E-08-2.275157475910E+00-7.450580596924E-09
     9.632988180166E-01 2.286718750000E+02-6.046035247351E-01-6.712779614215E-09
     3.543004723225E-10 0.000000000000E+00 8.050000000000E+02 0.000000000000E+00
     2.000000000000E+00 0.000000000000E+00 6.000000000000E-09 1.200000000000E-09
     2.448180000000E+05 0.000000000000E+00
C37 2021 06 08 20 00 00-8.783151861280E-04 5.799805080642E-12 0.000000000000E+00
     1.000000000000E+00 9.234375000000E+01 3.581220600784E-09-1.814896973744E-01
     4.561152309179E-06 6.371168419719E-04 1.057935878634E-05 5.282626905441E+03
     2.448000000000E+05-2.328306436539E-08-1.722982650058E-01-6.612390279770E-08
     9.513800177336E-01 1.428750000000E+02-1.143851182816E+00-6.551344318359E-09
    -2.110802209099E-10 0.000000000000E+00 8.050000000000E+02 0.000000000000E+00
     2.000000000000E+00 0.000000000000E+00-1.330000000000E-08-1.330000000000E-08
     2.448180000000E+05 1.000000000000E+00
C42 2021 06 08 20 00 00-9.135572472587E-04-1.847411112976E-13 0.000000000000E+00
     1.000000000000E+00 2.123437500000E+01 3.995523572452E-09-1.894561846940E+00
     8.586794137955E-07 1.449872157536E-03 6.563495844603E-06 5.282616575241E+03
     2.448000000000E+05-3.492459654808E-08-2.276770865354E+00-3.725290298462E-09
     9.635699376984E-01 2.282968750000E+02-1.282803979855E+00-6.743852337090E-09
     3.364425856127E-10 0.000000000000E+00 8.050000000000E+02 0.000000000000E+00
     2.000000000000E+00 0.000000000000E+00-3.250000000000E-08-3.250000000000E-08
     2.448180000000E+05 1.000000000000E+00
C33 2021 06 08 20 00 00-9.367516031489E-04-2.700062395888E-13 0.000000000000E+00
     1.000000000000E+00 2.307812500000E+01 3.939806965917E-09 2.913215229256E+00
     1.048669219017E-06 5.429281154647E-04 6.722752004862E-06 5.282617950439E+03
     2.448000000000E+05-5.867332220078E-08-2.281492746519E+00 1.164153218269E-08
     9.646981620649E-01 2.281093750000E+02-5.957970095198E-01-6.730280343191E-09
     3.832302487924E-10 0.000000000000E+00 8.050000000000E+02 0.000000000000E+00
     2.000000000000E+00 0.000000000000E+00-4.250000000000E-08-4.250000000000E-08
     2.448180000000E+05 1.000000000000E+00
C34 2021 06 08 20 00 00-6.548983510584E-04 8.642864202102E-12 0.000000000000E+00
     1.000000000000E+00-1.009843750000E+02 4.060169122341E-09-1.815709983152E+00
    -5.031004548073E-06 6.099854363129E-04 1.370441168547E-06 5.282618917465E+03
     2.448000000000E+05 4.237517714500E-08 1.899102226785E+00-6.984919309616E-09
     9.632106450182E-01 3.348281250000E+02 7.057368070565E-01-7.121010904402E-09
    -1.400058318049E-10 0.000000000000E+00 8.050000000000E+02 0.000000000000E+00
     2.000000000000E+00 0.000000000000E+00-6.300000000000E-09-6.300000000000E-09
     2.448180000000E+05 1.000000000000E+00
C24 2021 06 08 20 00 00-8.845574920997E-04-1.661959458943E-11 0.000000000000E+00
     1.000000000000E+00 7.893750000000E+01 3.527646940655E-09 7.691985897859E-01
     3.976747393608E-06 3.905449993908E-04 1.139566302299E-05 5.282627710342E+03
     2.448000000000E+05-6.193295121193E-08-1.698398121556E-01 4.982575774193E-08
     9.499549263271E-01 1.243750000000E+02 2.713723350613E-01-6.534200747117E-09
    -1.717928701483E-10 0.000000000000E+00 8.050000000000E+02 0.000000000000E+00
     2.000000000000E+00 0.000000000000E+00 7.000000000000E-09 7.000000000000E-09
     2.448180000000E+05 1.000000000000E+00
